*******************************************************************************
 Revised: Sep 28, 2012                 Mars                             499 / 4
 
 GEOPHYSICAL DATA (updated 2009-May-26):
  Mean radius (km)      = 3389.9(2+-4)    Density (g cm^-3)     =  3.933(5+-4)
  Mass (10^23 kg )      =    6.4185       Flattening, f         =  1/154.409
  Volume (x10^10 km^3)  =   16.318        Semi-major axis       =  3397+-4
  Sidereal rot. period  =   24.622962 hr  Rot. Rate (x10^5 s)   =  7.088218
  Mean solar day        =    1.0274907 d  Polar gravity ms^-2   =  3.758
  Mom. of Inertia       =    0.366        Equ. gravity  ms^-2   =  3.71
  Core radius (km)      =  ~1700          Potential Love # k2   =  0.153 +-.017
 
  Grav spectral fact u  =   14 (x10^5)    Topo. spectral fact t = 96 (x10^5)
  Fig. offset (Rcf-Rcm) = 2.50+-0.07 km   Offset (lat./long.)   = 62d / 88d
  GM (km^3 s^-2)        = 42828.3         Equatorial Radius, Re = 3394.0 km 
  GM 1-sigma (km^3 s^-2)= +- 0.1          Mass ratio (Sun/Mars) = 3098708+-9
  
  Atmos. pressure (bar) =    0.0056       Max. angular diam.    =  17.9"
  Mean Temperature (K)  =  210            Visual mag. V(1,0)    =  -1.52
  Geometric albedo      =    0.150        Obliquity to orbit    =  25.19 deg
  Mean sidereal orb per =    1.88081578 y Orbit vel.  km/s      =  24.1309
  Mean sidereal orb per =  686.98 d       Escape vel. km/s      =   5.027
  Hill's sphere rad. Rp =  319.8          Mag. mom (gauss Rp^3) = < 1x10^-4 
*******************************************************************************
 
 
*******************************************************************************
Ephemeris / WWW_USER Sun Jan 18 02:24:12 2015 Pasadena, USA      / Horizons    
*******************************************************************************
Target body name: Mars (499)                      {source: MAR097}
Center body name: Solar System Barycenter (0)     {source: DE-0431LE-0431}
Center-site name: BODY CENTER
*******************************************************************************
Start time      : A.D. 2015-Jan-18 00:00:00.0000 CT 
Stop  time      : A.D. 2015-Feb-17 00:00:00.0000 CT 
Step-size       : 1440 minutes
*******************************************************************************
Center geodetic : 0.00000000,0.00000000,0.0000000 {E-lon(deg),Lat(deg),Alt(km)}
Center cylindric: 0.00000000,0.00000000,0.0000000 {E-lon(deg),Dxy(km),Dz(km)}
Center radii    : (undefined)                                                  
Output units    : AU-D                                                         
Output format   : 02
Reference frame : ICRF/J2000.0                                                 
Output type     : LT+S CORRECTED cartesian states
Coordinate systm: Ecliptic and Mean Equinox of Reference Epoch                 
*******************************************************************************
JDCT ,   , X, Y, Z, VX, VY, VZ,
*******************************************************************************
$$SOE
2457040.500000000, A.D. 2015-Jan-18 00:00:00.0000,  1.393150852383604E+00, -1.930716347650592E-02, -3.465000800332729E-02,  7.287913176878839E-04,  1.519430754663038E-02,  3.003676687387126E-04,
2457041.500000000, A.D. 2015-Jan-19 00:00:00.0000,  1.393803194060941E+00, -4.112158611288472E-03, -3.434774938868695E-02,  5.759126605132775E-04,  1.519551436084045E-02,  3.041451275368279E-04,
2457042.500000000, A.D. 2015-Jan-20 00:00:00.0000,  1.394302711252929E+00,  1.108321695659851E-02, -3.404173215949003E-02,  4.231450320683663E-04,  1.519505183083996E-02,  3.078848795628836E-04,
2457043.500000000, A.D. 2015-Jan-21 00:00:00.0000,  1.394649525476194E+00,  2.627729580994227E-02, -3.373199423748960E-02,  2.705093439417156E-04,  1.519292385947227E-02,  3.115864990356178E-04,
2457044.500000000, A.D. 2015-Jan-22 00:00:00.0000,  1.394843779115706E+00,  4.146841459604002E-02, -3.341857397158786E-02,  1.180264004380829E-04,  1.518913465964048E-02,  3.152495663871245E-04,
2457045.500000000, A.D. 2015-Jan-23 00:00:00.0000,  1.394885635308345E+00,  5.665491433718404E-02, -3.310151012840282E-02, -3.428310242520282E-05,  1.518368875454422E-02,  3.188736663475638E-04,
2457046.500000000, A.D. 2015-Jan-24 00:00:00.0000,  1.394775277820704E+00,  7.183514073907783E-02, -3.278084188255660E-02, -1.863985859358139E-04,  1.517659097505444E-02,  3.224583896970164E-04,
2457047.500000000, A.D. 2015-Jan-25 00:00:00.0000,  1.394512910922186E+00,  8.700744449656669E-02, -3.245660880721621E-02, -3.382996023457483E-04,  1.516784646082966E-02,  3.260033376931147E-04,
2457048.500000000, A.D. 2015-Jan-26 00:00:00.0000,  1.394098759253136E+00,  1.021701815948968E-01, -3.212885086484721E-02, -4.899658475480618E-04,  1.515746066046107E-02,  3.295081260837245E-04,
2457049.500000000, A.D. 2015-Jan-27 00:00:00.0000,  1.393533067686821E+00,  1.173217136061650E-01, -3.179760839760767E-02, -6.413771668497994E-04,  1.514543932069767E-02,  3.329723849146940E-04,
2457050.500000000, A.D. 2015-Jan-28 00:00:00.0000,  1.392816101185273E+00,  1.324604079818406E-01, -3.146292211723641E-02, -7.925135530420232E-04,  1.513178846975502E-02,  3.363957540583183E-04,
2457051.500000000, A.D. 2015-Jan-29 00:00:00.0000,  1.391948144650479E+00,  1.475846383422686E-01, -3.112483309500709E-02, -9.433551452902996E-04,  1.511651441038498E-02,  3.397778799426957E-04,
2457052.500000000, A.D. 2015-Jan-30 00:00:00.0000,  1.390929502771933E+00,  1.626927847626191E-01, -3.078338275223423E-02, -1.093882234057676E-03,  1.509962372447333E-02,  3.431184162971187E-04,
2457053.500000000, A.D. 2015-Jan-31 00:00:00.0000,  1.389760499869872E+00,  1.777832340539608E-01, -3.043861285106295E-02, -1.244075265822888E-03,  1.508112327899785E-02,  3.464170250591723E-04,
2457054.500000000, A.D. 2015-Feb-01 00:00:00.0000,  1.388441479732923E+00,  1.928543800396290E-01, -3.009056548487127E-02, -1.393914846552781E-03,  1.506102022656496E-02,  3.496733762632476E-04,
2457055.500000000, A.D. 2015-Feb-02 00:00:00.0000,  1.386972805450131E+00,  2.079046238279969E-01, -2.973928306808150E-02, -1.543381751093230E-03,  1.503932199822808E-02,  3.528871501511803E-04,
2457056.500000000, A.D. 2015-Feb-03 00:00:00.0000,  1.385354859238554E+00,  2.229323740818597E-01, -2.938480832587540E-02, -1.692456937541399E-03,  1.501603629063969E-02,  3.560580412911922E-04,
2457057.500000000, A.D. 2015-Feb-04 00:00:00.0000,  1.383588042267414E+00,  2.379360472830132E-01, -2.902718428434980E-02, -1.841121553704136E-03,  1.499117105411126E-02,  3.591857590591566E-04,
2457058.500000000, A.D. 2015-Feb-05 00:00:00.0000,  1.381672774478472E+00,  2.529140679908281E-01, -2.866645426100628E-02, -1.989356930649469E-03,  1.496473448873879E-02,  3.622700226157214E-04,
2457059.500000000, A.D. 2015-Feb-06 00:00:00.0000,  1.379609494401764E+00,  2.678648690957999E-01, -2.830266185502164E-02, -2.137144576360421E-03,  1.493673504474839E-02,  3.653105562939006E-04,
2457060.500000000, A.D. 2015-Feb-07 00:00:00.0000,  1.377398658966858E+00,  2.827868920694678E-01, -2.793585093716875E-02, -2.284466178939050E-03,  1.490718141964742E-02,  3.683070893507380E-04,
2457061.500000000, A.D. 2015-Feb-08 00:00:00.0000,  1.375040743310802E+00,  2.976785872109466E-01, -2.756606563986716E-02, -2.431303616589278E-03,  1.487608255636858E-02,  3.712593591646886E-04,
2457062.500000000, A.D. 2015-Feb-09 00:00:00.0000,  1.372536240583211E+00,  3.125384138883852E-01, -2.719335034765184E-02, -2.577638968532900E-03,  1.484344764507216E-02,  3.741671153436352E-04,
2457063.500000000, A.D. 2015-Feb-10 00:00:00.0000,  1.369885661747481E+00,  3.273648407746481E-01, -2.681774968760659E-02, -2.723454522881250E-03,  1.480928611931717E-02,  3.770301220049164E-04,
2457064.500000000, A.D. 2015-Feb-11 00:00:00.0000,  1.367089535377360E+00,  3.421563460774604E-01, -2.643930851927745E-02, -2.868732778822363E-03,  1.477360763974291E-02,  3.798481562773066E-04,
2457065.500000000, A.D. 2015-Feb-12 00:00:00.0000,  1.364148407449863E+00,  3.569114177651911E-01, -2.605807192436418E-02, -3.013456443835677E-03,  1.473642207716266E-02,  3.826210043236941E-04,
2457066.500000000, A.D. 2015-Feb-13 00:00:00.0000,  1.361062841136143E+00,  3.716285537884336E-01, -2.567408519690141E-02, -3.157608432556349E-03,  1.469773950987060E-02,  3.853484594055796E-04,
2457067.500000000, A.D. 2015-Feb-14 00:00:00.0000,  1.357833416590486E+00,  3.863062622961834E-01, -2.528739383404397E-02, -3.301171868929424E-03,  1.465757023001577E-02,  3.880303224377562E-04,
2457068.500000000, A.D. 2015-Feb-15 00:00:00.0000,  1.354460730736134E+00,  4.009430618461911E-01, -2.489804352682746E-02, -3.444130087291759E-03,  1.461592474652893E-02,  3.906664018300435E-04,
2457069.500000000, A.D. 2015-Feb-16 00:00:00.0000,  1.350945397047216E+00,  4.155374816104742E-01, -2.450608015040062E-02, -3.586466635543029E-03,  1.457281378095024E-02,  3.932565137472352E-04,
2457070.500000000, A.D. 2015-Feb-17 00:00:00.0000,  1.347288045327639E+00,  4.300880615767544E-01, -2.411154975396927E-02, -3.728165286019499E-03,  1.452824825797125E-02,  3.958004856821218E-04,
$$EOE
*******************************************************************************
Coordinate system description:

  Ecliptic and Mean Equinox of Reference Epoch

    Reference epoch: J2000.0
    xy-plane: plane of the Earth's orbit at the reference epoch
    x-axis  : out along ascending node of instantaneous plane of the Earth's
              orbit and the Earth's mean equator at the reference epoch
    z-axis  : perpendicular to the xy-plane in the directional (+ or -) sense
              of Earth's north pole at the reference epoch.

Symbol meaning [1 au=149597870.700 km, 1 day=86400.0 s]:

    JDCT     Epoch Julian Date, Coordinate Time
      X      x-component of position vector (AU)                               
      Y      y-component of position vector (AU)                               
      Z      z-component of position vector (AU)                               
      VX     x-component of velocity vector (AU/day)                           
      VY     y-component of velocity vector (AU/day)                           
      VZ     z-component of velocity vector (AU/day)                           

States have been corrected for Newtonian light-time and relativistic stellar ab

 Computations by ...
     Solar System Dynamics Group, Horizons On-Line Ephemeris System
     4800 Oak Grove Drive, Jet Propulsion Laboratory
     Pasadena, CA  91109   USA
     Information: http://ssd.jpl.nasa.gov/
     Connect    : telnet://ssd.jpl.nasa.gov:6775  (via browser)
                  telnet ssd.jpl.nasa.gov 6775    (via command-line)
     Author     : Jon.Giorgini@jpl.nasa.gov
*******************************************************************************
